[{"OBJECT_NAME":"STARLINK-31412","OBJECT_ID":"2024-064N","EPOCH":"2026-03-09T22:25:53.365152","MEAN_MOTION":15.27575254,"ECCENTRICITY":9.531e-5,"INCLINATION":43.0041,"RA_OF_ASC_NODE":54.7488,"ARG_OF_PERICENTER":254.2755,"MEAN_ANOMALY":105.7991,"EPHEMERIS_TYPE":0,"CLASSIFICATION_TYPE":"U","NORAD_CAT_ID":59410,"ELEMENT_SET_NO":999,"REV_AT_EPOCH":10926,"BSTAR":8.75813e-7,"MEAN_MOTION_DOT":-2.38e-6,"MEAN_MOTION_DDOT":0},{"OBJECT_NAME":"COSMOS 2251 DEB","OBJECT_ID":"1993-036TX","EPOCH":"2026-03-09T08:00:49.998528","MEAN_MOTION":15.19675953,"ECCENTRICITY":0.00326805,"INCLINATION":74.0422,"RA_OF_ASC_NODE":187.2566,"ARG_OF_PERICENTER":9.105,"MEAN_ANOMALY":22.3257,"EPHEMERIS_TYPE":0,"CLASSIFICATION_TYPE":"U","NORAD_CAT_ID":34478,"ELEMENT_SET_NO":999,"REV_AT_EPOCH":90283,"BSTAR":0.0038377669,"MEAN_MOTION_DOT":0.00083988,"MEAN_MOTION_DDOT":0}]
